{
    "links": {
        "self": "http://www.neowsapp.com/rest/v1/neo/3893391?api_key=iIulBulltgU6a56xZRHN4H3l9WmuAYTsLGpBGhQ2"
    },
    "id": "3893391",
    "neo_reference_id": "3893391",
    "name": "(2019 WE1)",
    "designation": "2019 WE1",
    "nasa_jpl_url": "http://ssd.jpl.nasa.gov/sbdb.cgi?sstr=3893391",
    "absolute_magnitude_h": 24.8,
    "estimated_diameter": {
        "kilometers": {
            "estimated_diameter_min": 0.0291443905,
            "estimated_diameter_max": 0.0651688382
        },
        "meters": {
            "estimated_diameter_min": 29.1443904535,
            "estimated_diameter_max": 65.1688382168
        },
        "miles": {
            "estimated_diameter_min": 0.018109479,
            "estimated_diameter_max": 0.0404940262
        },
        "feet": {
            "estimated_diameter_min": 95.6180819754,
            "estimated_diameter_max": 213.8085311752
        }
    },
    "is_potentially_hazardous_asteroid": false,
    "close_approach_data": [
        {
            "close_approach_date": "2019-11-06",
            "close_approach_date_full": "2019-Nov-06 10:20",
            "epoch_date_close_approach": 1573035600000,
            "relative_velocity": {
                "kilometers_per_second": "15.5883303402",
                "kilometers_per_hour": "56117.9892248554",
                "miles_per_hour": "34869.5361380775"
            },
            "miss_distance": {
                "astronomical": "0.0419196674",
                "lunar": "16.3067506186",
                "kilometers": "6271092.954148438",
                "miles": "3896676.4704189244"
            },
            "orbiting_body": "Earth"
        }
    ],
    "orbital_data": {
        "orbit_id": "1",
        "orbit_determination_date": "2019-11-23 15:42:06",
        "first_observation_date": "2019-11-18",
        "last_observation_date": "2019-11-23",
        "data_arc_in_days": 5,
        "observations_used": 17,
        "orbit_uncertainty": "9",
        "minimum_orbit_intersection": ".03349",
        "jupiter_tisserand_invariant": "3.977",
        "epoch_osculation": "2458807.5",
        "eccentricity": ".5542007374563764",
        "semi_major_axis": "1.722199747606042",
        "inclination": "3.589718800462518",
        "ascending_node_longitude": "9.150132043529458",
        "orbital_period": "825.5126044662643",
        "perihelion_distance": ".767755377435588",
        "perihelion_argument": "324.4767705671312",
        "aphelion_distance": "2.676644117776495",
        "perihelion_time": "2458748.992015127517",
        "mean_anomaly": "25.51490363700999",
        "mean_motion": ".4360926750873274",
        "equinox": "J2000",
        "orbit_class": {
            "orbit_class_type": "APO",
            "orbit_class_description": "Near-Earth asteroid orbits which cross the Earth’s orbit similar to that of 1862 Apollo",
            "orbit_class_range": "a (semi-major axis) > 1.0 AU; q (perihelion) < 1.017 AU"
        }
    },
    "is_sentry_object": false
}